SHIYAN-24C 02           
1 58651U 23206B   26068.89175597  .00002770  00000+0  23935-3 0  9991
2 58651  97.3985  41.8071 0003465  80.6641 279.4974 14.97980163120443
STARLINK-34291          
1 64359U 25126R   26068.29385654  .00002043  00000+0  17897-3 0  9990
2 64359  70.0032  35.4075 0002787 257.6195 102.4652 14.98331543 40627
